start=new Date('2023-03-22T00:00:00.000Z').valueOf();
sats=[{"CENTER_NAME":"EARTH","OBJECT_TYPE":"PAYLOAD","ECCENTRICITY":"0.00013760","ELEMENT_SET_NO":"999","MEAN_MOTION_DDOT":"0.0000000000000","INCLINATION":"53.2175","OBJECT_ID":"2022-017AQ","SITE":"AFWTR","RCS_SIZE":"LARGE","SEMIMAJOR_AXIS":"6917.872","LAUNCH_DATE":"2022-02-25","MEAN_MOTION":"15.08842693","COUNTRY_CODE":"US","DECAY_DATE":null,"MEAN_ANOMALY":"254.3297","CLASSIFICATION_TYPE":"U","ARG_OF_PERICENTER":"105.7846","APOAPSIS":"540.689","NORAD_CAT_ID":"51806","PERIOD":"95.437","EPHEMERIS_TYPE":"0","MEAN_MOTION_DOT":"0.00001356","REF_FRAME":"TEME","TLE_LINE2":"2 51806  53.2175 166.0247 0001376 105.7846 254.3297 15.08842693 60294","FILE":"3866953","REV_AT_EPOCH":"6029","GP_ID":"228620756","TIME_SYSTEM":"UTC","OBJECT_NAME":"STARLINK-3581","BSTAR":"0.00010329000000","RA_OF_ASC_NODE":"166.0247","EPOCH":"2023-03-21T13:07:29.594784","PERIAPSIS":"538.785","MEAN_ELEMENT_THEORY":"SGP4","TLE_LINE1":"1 51806U 22017AQ  23080.54687031  .00001356  00000-0  10329-3 0  9992"},{"OBJECT_ID":"2022-017AR","INCLINATION":"53.2145","SITE":"AFWTR","COUNTRY_CODE":"US","RCS_SIZE":"LARGE","SEMIMAJOR_AXIS":"6917.840","LAUNCH_DATE":"2022-02-25","MEAN_MOTION":"15.08853101","CENTER_NAME":"EARTH","OBJECT_TYPE":"PAYLOAD","ELEMENT_SET_NO":"999","MEAN_MOTION_DDOT":"0.0000000000000","ECCENTRICITY":"0.00013690","OBJECT_NAME":"STARLINK-3606","TIME_SYSTEM":"UTC","REV_AT_EPOCH":"6044","GP_ID":"228621008","MEAN_ELEMENT_THEORY":"SGP4","TLE_LINE1":"1 51807U 22017AR  23080.55423179  .00009877  00000-0  63759-3 0  9996","BSTAR":"0.00063759000000","RA_OF_ASC_NODE":"165.9955","EPOCH":"2023-03-21T13:18:05.626656","PERIAPSIS":"538.758","ARG_OF_PERICENTER":"86.8622","APOAPSIS":"540.652","NORAD_CAT_ID":"51807","DECAY_DATE":null,"MEAN_ANOMALY":"273.2527","CLASSIFICATION_TYPE":"U","MEAN_MOTION_DOT":"0.00009877","REF_FRAME":"TEME","TLE_LINE2":"2 51807  53.2145 165.9955 0001369  86.8622 273.2527 15.08853101 60448","FILE":"3866953","EPHEMERIS_TYPE":"0","PERIOD":"95.437"},{"MEAN_MOTION":"15.08840266","LAUNCH_DATE":"2022-02-25","SEMIMAJOR_AXIS":"6917.880","RCS_SIZE":"LARGE","COUNTRY_CODE":"US","SITE":"AFWTR","OBJECT_ID":"2022-017AS","INCLINATION":"53.2165","ECCENTRICITY":"0.00011640","MEAN_MOTION_DDOT":"0.0000000000000","ELEMENT_SET_NO":"999","OBJECT_TYPE":"PAYLOAD","CENTER_NAME":"EARTH","EPOCH":"2023-03-21T11:21:30.636000","PERIAPSIS":"538.939","RA_OF_ASC_NODE":"166.3552","BSTAR":"0.00056900000000","TLE_LINE1":"1 51808U 22017AS  23080.47327125  .00008779  00000-0  56900-3 0  9992","MEAN_ELEMENT_THEORY":"SGP4","GP_ID":"228561077","REV_AT_EPOCH":"6038","TIME_SYSTEM":"UTC","OBJECT_NAME":"STARLINK-3609","PERIOD":"95.438","EPHEMERIS_TYPE":"0","FILE":"3866536","TLE_LINE2":"2 51808  53.2165 166.3552 0001164  66.0970 294.0144 15.08840266 60385","REF_FRAME":"TEME","MEAN_MOTION_DOT":"0.00008779","CLASSIFICATION_TYPE":"U","MEAN_ANOMALY":"294.0144","DECAY_DATE":null,"NORAD_CAT_ID":"51808","APOAPSIS":"540.550","ARG_OF_PERICENTER":"66.0970"},{"SITE":"AFWTR","INCLINATION":"53.2149","OBJECT_ID":"2022-017AT","MEAN_MOTION":"15.08864850","LAUNCH_DATE":"2022-02-25","SEMIMAJOR_AXIS":"6917.804","RCS_SIZE":"LARGE","COUNTRY_CODE":"US","OBJECT_TYPE":"PAYLOAD","CENTER_NAME":"EARTH","ECCENTRICITY":"0.00011320","MEAN_MOTION_DDOT":"0.0000000000000","ELEMENT_SET_NO":"999","GP_ID":"228597303","REV_AT_EPOCH":"6039","TIME_SYSTEM":"UTC","OBJECT_NAME":"STARLINK-3607","EPOCH":"2023-03-21T13:12:47.603808","PERIAPSIS":"538.886","RA_OF_ASC_NODE":"166.0093","BSTAR":"0.00219520000000","TLE_LINE1":"1 51809U 22017AT  23080.55055097  .00034845  00000-0  21952-2 0  9999","MEAN_ELEMENT_THEORY":"SGP4","CLASSIFICATION_TYPE":"U","MEAN_ANOMALY":"303.9947","DECAY_DATE":null,"NORAD_CAT_ID":"51809","APOAPSIS":"540.453","ARG_OF_PERICENTER":"56.1153","EPHEMERIS_TYPE":"0","PERIOD":"95.436","FILE":"3866941","TLE_LINE2":"2 51809  53.2149 166.0093 0001132  56.1153 303.9947 15.08864850 60390","MEAN_MOTION_DOT":"0.00034845","REF_FRAME":"TEME"},{"PERIAPSIS":"538.627","EPOCH":"2023-03-21T11:56:00.704832","RA_OF_ASC_NODE":"156.2501","BSTAR":"0.00144560000000","TLE_LINE1":"1 51810U 22017AU  23080.49723038  .00022799  00000-0  14456-2 0  9997","MEAN_ELEMENT_THEORY":"SGP4","REV_AT_EPOCH":"6052","GP_ID":"228561253","OBJECT_NAME":"STARLINK-3613","TIME_SYSTEM":"UTC","EPHEMERIS_TYPE":"0","PERIOD":"95.437","TLE_LINE2":"2 51810  53.2155 156.2501 0001583 109.1011 251.0153 15.08847742 60524","FILE":"3866536","REF_FRAME":"TEME","MEAN_MOTION_DOT":"0.00022799","DECAY_DATE":null,"MEAN_ANOMALY":"251.0153","CLASSIFICATION_TYPE":"U","NORAD_CAT_ID":"51810","ARG_OF_PERICENTER":"109.1011","APOAPSIS":"540.817","MEAN_MOTION":"15.08847742","RCS_SIZE":"LARGE","LAUNCH_DATE":"2022-02-25","SEMIMAJOR_AXIS":"6917.857","COUNTRY_CODE":"US","SITE":"AFWTR","OBJECT_ID":"2022-017AU","INCLINATION":"53.2155","ECCENTRICITY":"0.00015830","MEAN_MOTION_DDOT":"0.0000000000000","ELEMENT_SET_NO":"999","OBJECT_TYPE":"PAYLOAD","CENTER_NAME":"EARTH"},{"SEMIMAJOR_AXIS":"6917.844","LAUNCH_DATE":"2022-02-25","RCS_SIZE":"LARGE","MEAN_MOTION":"15.08851820","COUNTRY_CODE":"US","INCLINATION":"53.2165","OBJECT_ID":"2022-017AV","SITE":"AFWTR","ECCENTRICITY":"0.00010510","ELEMENT_SET_NO":"999","MEAN_MOTION_DDOT":"0.0000000000000","CENTER_NAME":"EARTH","OBJECT_TYPE":"PAYLOAD","RA_OF_ASC_NODE":"166.0440","BSTAR":"0.00057584000000","EPOCH":"2023-03-21T13:02:11.825088","PERIAPSIS":"538.982","MEAN_ELEMENT_THEORY":"SGP4","TLE_LINE1":"1 51811U 22017AV  23080.54319242  .00008891  00000-0  57584-3 0  9999","GP_ID":"228561070","REV_AT_EPOCH":"6039","OBJECT_NAME":"STARLINK-3569","TIME_SYSTEM":"UTC","PERIOD":"95.437","EPHEMERIS_TYPE":"0","MEAN_MOTION_DOT":"0.00008891","REF_FRAME":"TEME","FILE":"3866536","TLE_LINE2":"2 51811  53.2165 166.0440 0001051  74.5670 285.5438 15.08851820 60398","CLASSIFICATION_TYPE":"U","MEAN_ANOMALY":"285.5438","DECAY_DATE":null,"ARG_OF_PERICENTER":"74.5670","APOAPSIS":"540.436","NORAD_CAT_ID":"51811"},{"CENTER_NAME":"EARTH","OBJECT_TYPE":"PAYLOAD","ELEMENT_SET_NO":"999","MEAN_MOTION_DDOT":"0.0000000000000","ECCENTRICITY":"0.00014620","OBJECT_ID":"2022-017AW","INCLINATION":"53.2143","SITE":"AFWTR","COUNTRY_CODE":"US","RCS_SIZE":"LARGE","SEMIMAJOR_AXIS":"6917.855","LAUNCH_DATE":"2022-02-25","MEAN_MOTION":"15.08848151","ARG_OF_PERICENTER":"119.6418","APOAPSIS":"540.732","NORAD_CAT_ID":"51812","DECAY_DATE":null,"CLASSIFICATION_TYPE":"U","MEAN_ANOMALY":"240.4720","REF_FRAME":"TEME","MEAN_MOTION_DOT":"0.00004757","TLE_LINE2":"2 51812  53.2143 156.3007 0001462 119.6418 240.4720 15.08848151 60525","FILE":"3866536","EPHEMERIS_TYPE":"0","PERIOD":"95.437","TIME_SYSTEM":"UTC","OBJECT_NAME":"STARLINK-3610","REV_AT_EPOCH":"6052","GP_ID":"228561246","MEAN_ELEMENT_THEORY":"SGP4","TLE_LINE1":"1 51812U 22017AW  23080.48522931  .00004757  00000-0  31669-3 0  9997","BSTAR":"0.00031669000000","RA_OF_ASC_NODE":"156.3007","EPOCH":"2023-03-21T11:38:43.812384","PERIAPSIS":"538.709"},{"PERIAPSIS":"538.660","EPOCH":"2023-03-21T11:12:14.553504","RA_OF_ASC_NODE":"156.4118","BSTAR":"0.00149700000000","TLE_LINE1":"1 51813U 22017AX  23080.46683511  .00023630  00000-0  14970-2 0  9994","MEAN_ELEMENT_THEORY":"SGP4","REV_AT_EPOCH":"6040","GP_ID":"228590255","OBJECT_NAME":"STARLINK-3552","TIME_SYSTEM":"UTC","PERIOD":"95.436","EPHEMERIS_TYPE":"0","TLE_LINE2":"2 51813  53.2153 156.4118 0001480 102.7508 257.3649 15.08860226 60405","FILE":"3866730","REF_FRAME":"TEME","MEAN_MOTION_DOT":"0.00023630","DECAY_DATE":null,"CLASSIFICATION_TYPE":"U","MEAN_ANOMALY":"257.3649","NORAD_CAT_ID":"51813","APOAPSIS":"540.707","ARG_OF_PERICENTER":"102.7508","MEAN_MOTION":"15.08860226","RCS_SIZE":"LARGE","SEMIMAJOR_AXIS":"6917.819","LAUNCH_DATE":"2022-02-25","COUNTRY_CODE":"US","SITE":"AFWTR","OBJECT_ID":"2022-017AX","INCLINATION":"53.2153","ECCENTRICITY":"0.00014800","MEAN_MOTION_DDOT":"0.0000000000000","ELEMENT_SET_NO":"999","OBJECT_TYPE":"PAYLOAD","CENTER_NAME":"EARTH"},{"MEAN_ELEMENT_THEORY":"SGP4","TLE_LINE1":"1 51814U 22017AY  23080.47787165  .00004511  00000-0  30130-3 0  9990","BSTAR":"0.00030130000000","RA_OF_ASC_NODE":"156.3368","EPOCH":"2023-03-21T11:28:08.110560","PERIAPSIS":"538.564","OBJECT_NAME":"STARLINK-3599","TIME_SYSTEM":"UTC","GP_ID":"228589004","REV_AT_EPOCH":"6040","MEAN_MOTION_DOT":"0.00004511","REF_FRAME":"TEME","FILE":"3866730","TLE_LINE2":"2 51814  53.2135 156.3368 0001674 116.3276 243.7888 15.08847704 60400","EPHEMERIS_TYPE":"0","PERIOD":"95.437","APOAPSIS":"540.880","ARG_OF_PERICENTER":"116.3276","NORAD_CAT_ID":"51814","MEAN_ANOMALY":"243.7888","CLASSIFICATION_TYPE":"U","DECAY_DATE":null,"COUNTRY_CODE":"US","LAUNCH_DATE":"2022-02-25","SEMIMAJOR_AXIS":"6917.857","RCS_SIZE":"LARGE","MEAN_MOTION":"15.08847704","OBJECT_ID":"2022-017AY","INCLINATION":"53.2135","SITE":"AFWTR","ELEMENT_SET_NO":"999","MEAN_MOTION_DDOT":"0.0000000000000","ECCENTRICITY":"0.00016740","CENTER_NAME":"EARTH","OBJECT_TYPE":"PAYLOAD"},{"MEAN_ELEMENT_THEORY":"SGP4","TLE_LINE1":"1 51815U 22017AZ  23080.41532523  .00038692  00000-0  24331-2 0  9993","BSTAR":"0.00243310000000","RA_OF_ASC_NODE":"156.6185","PERIAPSIS":"538.728","EPOCH":"2023-03-21T09:58:04.099872","TIME_SYSTEM":"UTC","OBJECT_NAME":"STARLINK-3604","GP_ID":"228589254","REV_AT_EPOCH":"6039","MEAN_MOTION_DOT":"0.00038692","REF_FRAME":"TEME","FILE":"3866730","TLE_LINE2":"2 51815  53.2148 156.6185 0001285  69.4554 290.6576 15.08881904 60393","PERIOD":"95.435","EPHEMERIS_TYPE":"0","ARG_OF_PERICENTER":"69.4554","APOAPSIS":"540.506","NORAD_CAT_ID":"51815","MEAN_ANOMALY":"290.6576","CLASSIFICATION_TYPE":"U","DECAY_DATE":null,"COUNTRY_CODE":"US","SEMIMAJOR_AXIS":"6917.752","LAUNCH_DATE":"2022-02-25","RCS_SIZE":"LARGE","MEAN_MOTION":"15.08881904","OBJECT_ID":"2022-017AZ","INCLINATION":"53.2148","SITE":"AFWTR","ELEMENT_SET_NO":"999","MEAN_MOTION_DDOT":"0.0000000000000","ECCENTRICITY":"0.00012850","CENTER_NAME":"EARTH","OBJECT_TYPE":"PAYLOAD"}];
